{"fetched_at":"2026-03-29T02:12:04Z","count":15717,"tles":[{"name":"STARLINK-35647","line1":"1 66388U 25257J   26087.54123970  .00022778  00000+0  77873-3 0  9996","line2":"2 66388  53.1584 129.1856 0001238  91.4140 268.7003 15.30204451 22616","category":"Starlink"}]}